{
  "norad_id": 46357,
  "name": "STARLINK-1666",
  "history": [
    {
      "epoch": "2026-03-28T22:00:01.999584Z",
      "apogee_km": 382.7851425897643,
      "perigee_km": 377.9449737557825,
      "latitude_deg": 52.31613393166479,
      "longitude_deg": -171.2768525115374,
      "height_km": 388.59300837969937,
      "semi_major_axis_km": 6758.502058172773,
      "eccentricity": 0.00035808,
      "inclination_deg": 53.044,
      "raan_deg": 240.6537,
      "arg_perigee_deg": 240.8015,
      "mean_anomaly_deg": 217.9937,
      "mean_motion_rev_day": 15.62525402
    },
    {
      "epoch": "2026-03-29T05:15:17.108064Z",
      "apogee_km": 382.5072605926325,
      "perigee_km": 377.66837162429783,
      "latitude_deg": -4.501042210273961e-05,
      "longitude_deg": -26.274703110243742,
      "height_km": 382.1403918848472,
      "semi_major_axis_km": 6758.224816108464,
      "eccentricity": 0.000358,
      "inclination_deg": 53.0445,
      "raan_deg": 239.1748,
      "arg_perigee_deg": 241.6258,
      "mean_anomaly_deg": 118.4394,
      "mean_motion_rev_day": 15.62621552
    },
    {
      "epoch": "2026-03-29T20:36:12.614976Z",
      "apogee_km": 381.8513970058548,
      "perigee_km": 376.98595691844275,
      "latitude_deg": -3.0173856476147187e-05,
      "longitude_deg": 99.73467867145578,
      "height_km": 381.20798684358783,
      "semi_major_axis_km": 6757.555676962149,
      "eccentricity": 0.00036,
      "inclination_deg": 53.0444,
      "raan_deg": 236.0458,
      "arg_perigee_deg": 248.6343,
      "mean_anomaly_deg": 111.4286,
      "mean_motion_rev_day": 15.62853656
    },
    {
      "epoch": "2026-03-30T05:48:41.971680Z",
      "apogee_km": 381.439697881945,
      "perigee_km": 376.64358762489064,
      "latitude_deg": 4.193435935702954e-05,
      "longitude_deg": -40.642152104016226,
      "height_km": 380.5814722281853,
      "semi_major_axis_km": 6757.178642753417,
      "eccentricity": 0.00035489,
      "inclination_deg": 53.0443,
      "raan_deg": 234.1694,
      "arg_perigee_deg": 254.6025,
      "mean_anomaly_deg": 105.4597,
      "mean_motion_rev_day": 15.62984463
    },
    {
      "epoch": "2026-03-30T14:00:03.000384Z",
      "apogee_km": 381.0653707949641,
      "perigee_km": 376.1064767067637,
      "latitude_deg": 43.26513218621533,
      "longitude_deg": -30.248129571092772,
      "height_km": 384.6075859431876,
      "semi_major_axis_km": 6756.722923750864,
      "eccentricity": 0.00036696,
      "inclination_deg": 53.0438,
      "raan_deg": 232.499,
      "arg_perigee_deg": 255.9644,
      "mean_anomaly_deg": 225.254,
      "mean_motion_rev_day": 15.63142593
    },
    {
      "epoch": "2026-03-30T22:00:00.999936Z",
      "apogee_km": 380.7172641824227,
      "perigee_km": 375.7774013413664,
      "latitude_deg": -14.440267318199686,
      "longitude_deg": -96.3305215990357,
      "height_km": 381.02906101763205,
      "semi_major_axis_km": 6756.384332761894,
      "eccentricity": 0.00036557,
      "inclination_deg": 53.0452,
      "raan_deg": 230.8682,
      "arg_perigee_deg": 261.748,
      "mean_anomaly_deg": 296.2674,
      "mean_motion_rev_day": 15.63260098
    },
    {
      "epoch": "2026-03-31T20:00:01.999008Z",
      "apogee_km": 380.12395432631274,
      "perigee_km": 375.10172989368766,
      "latitude_deg": -30.9450512589961,
      "longitude_deg": 70.51623431855897,
      "height_km": 385.5094962029549,
      "semi_major_axis_km": 6755.74984211,
      "eccentricity": 0.0003717,
      "inclination_deg": 53.0445,
      "raan_deg": 226.38,
      "arg_perigee_deg": 269.8294,
      "mean_anomaly_deg": 50.3787,
      "mean_motion_rev_day": 15.63480332
    }
  ]
}